start=new Date('2023-05-29T00:00:00.000Z').valueOf();
sats=[{"INCLINATION":"97.6564","EPOCH":"2023-05-28T21:34:54.041376","SITE":"AFWTR","FILE":"3919546","DECAY_DATE":null,"COUNTRY_CODE":"US","CENTER_NAME":"EARTH","SEMIMAJOR_AXIS":"6941.133","OBJECT_NAME":"STARLINK-4429","NORAD_CAT_ID":"53495","OBJECT_TYPE":"PAYLOAD","RA_OF_ASC_NODE":"270.2473","REF_FRAME":"TEME","ARG_OF_PERICENTER":"200.4987","ELEMENT_SET_NO":"999","MEAN_ANOMALY":"159.6059","TIME_SYSTEM":"UTC","EPHEMERIS_TYPE":"0","OBJECT_ID":"2022-099AG","MEAN_MOTION":"15.01264551","TLE_LINE2":"2 53495  97.6564 270.2473 0004451 200.4987 159.6059 15.01264551 43589","ECCENTRICITY":"0.00044510","MEAN_MOTION_DOT":"0.00001493","APOAPSIS":"566.087","TLE_LINE1":"1 53495U 22099AG  23148.89923659  .00001493  00000-0  12081-3 0  9999","LAUNCH_DATE":"2022-08-12","PERIAPSIS":"559.908","MEAN_MOTION_DDOT":"0.0000000000000","PERIOD":"95.919","CLASSIFICATION_TYPE":"U","RCS_SIZE":"LARGE","MEAN_ELEMENT_THEORY":"SGP4","GP_ID":"232707503","REV_AT_EPOCH":"4358","BSTAR":"0.00012081000000"},{"APOAPSIS":"566.365","TLE_LINE1":"1 53496U 22099AH  23148.90293658  .00001425  00000-0  11553-3 0  9999","LAUNCH_DATE":"2022-08-12","PERIAPSIS":"559.651","MEAN_MOTION_DOT":"0.00001425","MEAN_ELEMENT_THEORY":"SGP4","GP_ID":"232708755","REV_AT_EPOCH":"4358","BSTAR":"0.00011553000000","PERIOD":"95.919","MEAN_MOTION_DDOT":"0.0000000000000","RCS_SIZE":"LARGE","CLASSIFICATION_TYPE":"U","SEMIMAJOR_AXIS":"6941.143","OBJECT_NAME":"STARLINK-4465","CENTER_NAME":"EARTH","COUNTRY_CODE":"US","RA_OF_ASC_NODE":"270.2483","OBJECT_TYPE":"PAYLOAD","NORAD_CAT_ID":"53496","REF_FRAME":"TEME","EPOCH":"2023-05-28T21:40:13.720512","INCLINATION":"97.6550","SITE":"AFWTR","FILE":"3919546","DECAY_DATE":null,"TIME_SYSTEM":"UTC","TLE_LINE2":"2 53496  97.6550 270.2483 0004836 209.6161 150.4790 15.01261216 43584","MEAN_MOTION":"15.01261216","OBJECT_ID":"2022-099AH","EPHEMERIS_TYPE":"0","ECCENTRICITY":"0.00048360","ARG_OF_PERICENTER":"209.6161","MEAN_ANOMALY":"150.4790","ELEMENT_SET_NO":"999"},{"ECCENTRICITY":"0.00031100","MEAN_MOTION":"15.01304175","TLE_LINE2":"2 53497  97.6581 270.2498 0003110 189.9931 170.1231 15.01304175 43585","OBJECT_ID":"2022-099AJ","EPHEMERIS_TYPE":"0","TIME_SYSTEM":"UTC","MEAN_ANOMALY":"170.1231","ELEMENT_SET_NO":"999","ARG_OF_PERICENTER":"189.9931","REF_FRAME":"TEME","RA_OF_ASC_NODE":"270.2498","OBJECT_TYPE":"PAYLOAD","NORAD_CAT_ID":"53497","SEMIMAJOR_AXIS":"6941.011","OBJECT_NAME":"STARLINK-4453","COUNTRY_CODE":"US","CENTER_NAME":"EARTH","FILE":"3919546","DECAY_DATE":null,"SITE":"AFWTR","INCLINATION":"97.6581","EPOCH":"2023-05-28T21:29:33.785952","BSTAR":"-0.00055587000000","GP_ID":"232708505","REV_AT_EPOCH":"4358","MEAN_ELEMENT_THEORY":"SGP4","RCS_SIZE":"LARGE","CLASSIFICATION_TYPE":"U","PERIOD":"95.917","MEAN_MOTION_DDOT":"0.0000000000000","LAUNCH_DATE":"2022-08-12","PERIAPSIS":"560.717","TLE_LINE1":"1 53497U 22099AJ  23148.89552993 -.00007201  00000-0 -55587-3 0  9993","APOAPSIS":"565.034","MEAN_MOTION_DOT":"-0.00007201"},{"INCLINATION":"97.6553","EPOCH":"2023-05-28T21:37:33.934080","SITE":"AFWTR","DECAY_DATE":null,"FILE":"3919546","OBJECT_NAME":"STARLINK-4439","SEMIMAJOR_AXIS":"6941.135","CENTER_NAME":"EARTH","COUNTRY_CODE":"US","RA_OF_ASC_NODE":"270.2466","OBJECT_TYPE":"PAYLOAD","NORAD_CAT_ID":"53498","REF_FRAME":"TEME","ARG_OF_PERICENTER":"203.1727","MEAN_ANOMALY":"156.9290","ELEMENT_SET_NO":"999","TIME_SYSTEM":"UTC","TLE_LINE2":"2 53498  97.6553 270.2466 0004611 203.1727 156.9290 15.01263708 43582","MEAN_MOTION":"15.01263708","EPHEMERIS_TYPE":"0","OBJECT_ID":"2022-099AK","ECCENTRICITY":"0.00046110","MEAN_MOTION_DOT":"0.00001608","APOAPSIS":"566.201","TLE_LINE1":"1 53498U 22099AK  23148.90108720  .00001608  00000-0  12977-3 0  9990","LAUNCH_DATE":"2022-08-12","PERIAPSIS":"559.800","PERIOD":"95.919","MEAN_MOTION_DDOT":"0.0000000000000","RCS_SIZE":"MEDIUM","CLASSIFICATION_TYPE":"U","MEAN_ELEMENT_THEORY":"SGP4","GP_ID":"232707253","REV_AT_EPOCH":"4358","BSTAR":"0.00012977000000"},{"OBJECT_TYPE":"PAYLOAD","RA_OF_ASC_NODE":"270.2445","NORAD_CAT_ID":"53499","REF_FRAME":"TEME","OBJECT_NAME":"STARLINK-4454","SEMIMAJOR_AXIS":"6943.643","COUNTRY_CODE":"US","CENTER_NAME":"EARTH","SITE":"AFWTR","FILE":"3919546","DECAY_DATE":null,"EPOCH":"2023-05-28T21:33:41.691744","INCLINATION":"97.6568","TLE_LINE2":"2 53499  97.6568 270.2445 0001012  90.6221 269.5119 15.00450551 43580","MEAN_MOTION":"15.00450551","EPHEMERIS_TYPE":"0","OBJECT_ID":"2022-099AL","ECCENTRICITY":"0.00010120","TIME_SYSTEM":"UTC","MEAN_ANOMALY":"269.5119","ELEMENT_SET_NO":"999","ARG_OF_PERICENTER":"90.6221","PERIAPSIS":"564.805","LAUNCH_DATE":"2022-08-12","APOAPSIS":"566.211","TLE_LINE1":"1 53499U 22099AL  23148.89839921  .00001395  00000-0  11560-3 0  9993","MEAN_MOTION_DOT":"0.00001395","BSTAR":"0.00011560000000","MEAN_ELEMENT_THEORY":"SGP4","REV_AT_EPOCH":"4358","GP_ID":"232708004","RCS_SIZE":"LARGE","CLASSIFICATION_TYPE":"U","PERIOD":"95.971","MEAN_MOTION_DDOT":"0.0000000000000"},{"RCS_SIZE":"LARGE","CLASSIFICATION_TYPE":"U","PERIOD":"95.919","MEAN_MOTION_DDOT":"0.0000000000000","BSTAR":"0.00011049000000","MEAN_ELEMENT_THEORY":"SGP4","GP_ID":"232708255","REV_AT_EPOCH":"4358","MEAN_MOTION_DOT":"0.00001361","LAUNCH_DATE":"2022-08-12","PERIAPSIS":"560.147","APOAPSIS":"565.847","TLE_LINE1":"1 53500U 22099AM  23148.89738837  .00001361  00000-0  11049-3 0  9995","MEAN_ANOMALY":"175.8191","ELEMENT_SET_NO":"999","ARG_OF_PERICENTER":"184.2999","MEAN_MOTION":"15.01264892","TLE_LINE2":"2 53500  97.6582 270.2490 0004106 184.2999 175.8191 15.01264892 43589","OBJECT_ID":"2022-099AM","EPHEMERIS_TYPE":"0","ECCENTRICITY":"0.00041060","TIME_SYSTEM":"UTC","SITE":"AFWTR","FILE":"3919546","DECAY_DATE":null,"INCLINATION":"97.6582","EPOCH":"2023-05-28T21:32:14.355168","OBJECT_TYPE":"PAYLOAD","RA_OF_ASC_NODE":"270.2490","NORAD_CAT_ID":"53500","REF_FRAME":"TEME","SEMIMAJOR_AXIS":"6941.132","OBJECT_NAME":"STARLINK-4455","COUNTRY_CODE":"US","CENTER_NAME":"EARTH"},{"ARG_OF_PERICENTER":"105.1829","ELEMENT_SET_NO":"999","MEAN_ANOMALY":"50.4676","TIME_SYSTEM":"UTC","EPHEMERIS_TYPE":"0","OBJECT_ID":"2022-099AN","TLE_LINE2":"2 53501  97.6563 270.2794 0001427 105.1829  50.4676 15.02112237  1309","MEAN_MOTION":"15.02112237","ECCENTRICITY":"0.00014270","EPOCH":"2023-05-28T22:00:00.999936","INCLINATION":"97.6563","SITE":"AFWTR","DECAY_DATE":null,"FILE":"3919546","COUNTRY_CODE":"US","CENTER_NAME":"EARTH","OBJECT_NAME":"STARLINK-4434","SEMIMAJOR_AXIS":"6938.521","NORAD_CAT_ID":"53501","OBJECT_TYPE":"PAYLOAD","RA_OF_ASC_NODE":"270.2794","REF_FRAME":"TEME","MEAN_MOTION_DDOT":"0.0000000000000","PERIOD":"95.865","CLASSIFICATION_TYPE":"U","RCS_SIZE":"LARGE","MEAN_ELEMENT_THEORY":"SGP4","REV_AT_EPOCH":"130","GP_ID":"232709006","BSTAR":"-0.00279570000000","MEAN_MOTION_DOT":"-0.00036592","APOAPSIS":"561.376","TLE_LINE1":"1 53501U 22099AN  23148.91667824 -.00036592  00000-0 -27957-2 0  9996","LAUNCH_DATE":"2022-08-12","PERIAPSIS":"559.396"},{"ECCENTRICITY":"0.00028200","EPHEMERIS_TYPE":"0","OBJECT_ID":"2022-099AP","MEAN_MOTION":"15.01264397","TLE_LINE2":"2 53502  97.6576 270.2506 0002820 181.4850 178.6367 15.01264397 43584","TIME_SYSTEM":"UTC","ELEMENT_SET_NO":"999","MEAN_ANOMALY":"178.6367","ARG_OF_PERICENTER":"181.4850","REF_FRAME":"TEME","NORAD_CAT_ID":"53502","OBJECT_TYPE":"PAYLOAD","RA_OF_ASC_NODE":"270.2506","COUNTRY_CODE":"US","CENTER_NAME":"EARTH","OBJECT_NAME":"STARLINK-4435","SEMIMAJOR_AXIS":"6941.133","DECAY_DATE":null,"FILE":"3919546","SITE":"AFWTR","EPOCH":"2023-05-28T21:26:54.442752","INCLINATION":"97.6576","BSTAR":"0.00015660000000","GP_ID":"232707754","REV_AT_EPOCH":"4358","MEAN_ELEMENT_THEORY":"SGP4","CLASSIFICATION_TYPE":"U","RCS_SIZE":"LARGE","MEAN_MOTION_DDOT":"0.0000000000000","PERIOD":"95.919","PERIAPSIS":"561.041","LAUNCH_DATE":"2022-08-12","TLE_LINE1":"1 53502U 22099AP  23148.89368568  .00001953  00000-0  15660-3 0  9997","APOAPSIS":"564.956","MEAN_MOTION_DOT":"0.00001953"},{"LAUNCH_DATE":"2022-08-12","PERIAPSIS":"562.340","APOAPSIS":"563.681","TLE_LINE1":"1 53503U 22099AQ  23148.88813081  .00002087  00000-0  16706-3 0  9993","MEAN_MOTION_DOT":"0.00002087","BSTAR":"0.00016706000000","MEAN_ELEMENT_THEORY":"SGP4","GP_ID":"232707504","REV_AT_EPOCH":"4358","RCS_SIZE":"LARGE","CLASSIFICATION_TYPE":"U","PERIOD":"95.919","MEAN_MOTION_DDOT":"0.0000000000000","RA_OF_ASC_NODE":"270.2494","OBJECT_TYPE":"PAYLOAD","NORAD_CAT_ID":"53503","REF_FRAME":"TEME","SEMIMAJOR_AXIS":"6941.145","OBJECT_NAME":"STARLINK-4461","CENTER_NAME":"EARTH","COUNTRY_CODE":"US","SITE":"AFWTR","FILE":"3919546","DECAY_DATE":null,"EPOCH":"2023-05-28T21:18:54.501984","INCLINATION":"97.6572","TLE_LINE2":"2 53503  97.6572 270.2494 0000966 137.5045 222.6254 15.01260508 43589","MEAN_MOTION":"15.01260508","EPHEMERIS_TYPE":"0","OBJECT_ID":"2022-099AQ","ECCENTRICITY":"0.00009660","TIME_SYSTEM":"UTC","MEAN_ANOMALY":"222.6254","ELEMENT_SET_NO":"999","ARG_OF_PERICENTER":"137.5045"},{"MEAN_ANOMALY":"182.2500","ELEMENT_SET_NO":"999","ARG_OF_PERICENTER":"177.8736","TLE_LINE2":"2 53504  97.6573 270.2496 0002769 177.8736 182.2500 15.01265710 43585","MEAN_MOTION":"15.01265710","EPHEMERIS_TYPE":"0","OBJECT_ID":"2022-099AR","ECCENTRICITY":"0.00027690","TIME_SYSTEM":"UTC","SITE":"AFWTR","FILE":"3919546","DECAY_DATE":null,"EPOCH":"2023-05-28T21:24:14.481792","INCLINATION":"97.6573","RA_OF_ASC_NODE":"270.2496","OBJECT_TYPE":"PAYLOAD","NORAD_CAT_ID":"53504","REF_FRAME":"TEME","SEMIMAJOR_AXIS":"6941.129","OBJECT_NAME":"STARLINK-4448","COUNTRY_CODE":"US","CENTER_NAME":"EARTH","RCS_SIZE":"LARGE","CLASSIFICATION_TYPE":"U","PERIOD":"95.919","MEAN_MOTION_DDOT":"0.0000000000000","BSTAR":"0.00011615000000","MEAN_ELEMENT_THEORY":"SGP4","REV_AT_EPOCH":"4358","GP_ID":"232708756","MEAN_MOTION_DOT":"0.00001433","LAUNCH_DATE":"2022-08-12","PERIAPSIS":"561.072","APOAPSIS":"564.916","TLE_LINE1":"1 53504U 22099AR  23148.89183428  .00001433  00000-0  11615-3 0  9998"}];
